OBJECT_NAME,OBJECT_ID,EPOCH,MEAN_MOTION,ECCENTRICITY,INCLINATION,RA_OF_ASC_NODE,ARG_OF_PERICENTER,MEAN_ANOMALY,EPHEMERIS_TYPE,CLASSIFICATION_TYPE,NORAD_CAT_ID,ELEMENT_SET_NO,REV_AT_EPOCH,BSTAR,MEAN_MOTION_DOT,MEAN_MOTION_DDOT
BEIDOU-2 IGSO-4,2011-038A,2026-06-05T00:18:51.599808,1.00287701,.01590014,54.5979,165.7814,231.3624,313.8818,0,U,37763,999,5452,0,.56E-6,0
ASTRA 1N,2011-041A,2026-06-08T03:12:25.860960,1.00272079,.0006288,0.0794,34.8576,57.6545,231.3359,0,U,37775,999,4443,0,.135E-5,0
BSAT-3C (JCSAT-110R),2011-041B,2026-06-08T00:13:03.620352,1.00272013,.000047,0.0194,320.8907,199.8085,208.9338,0,U,37776,999,5037,0,-.335E-5,0
PAKSAT-1R,2011-042A,2026-06-08T03:49:38.792064,1.00274732,.0003285,0.6644,84.6927,345.4430,281.8294,0,U,37779,999,5438,0,.169E-5,0
SES-2,2011-049A,2026-06-08T02:42:06.568992,1.00271729,.0002895,0.0435,120.5829,314.3285,135.1296,0,U,37809,999,5387,0,-.18E-5,0
ARABSAT-5C,2011-049B,2026-06-07T13:31:19.742880,1.00273558,.0003293,0.0594,27.9926,65.9651,24.8388,0,U,37810,999,5394,0,.138E-5,0
EUTELSAT 7 WEST A,2011-051A,2026-06-08T03:04:49.090944,1.00271304,.0004239,0.0603,352.5737,97.4107,205.4280,0,U,37816,999,5378,0,-.45E-6,0
QUETZSAT 1,2011-054A,2026-06-08T02:44:58.795296,1.00272064,.0002808,0.0461,70.1906,8.4840,142.0914,0,U,37826,999,4978,0,-.226E-5,0
INTELSAT 18 (IS-18),2011-056A,2026-06-08T02:15:18.784224,1.00272240,.0002137,0.0202,320.8444,130.5072,18.9700,0,U,37834,999,5372,0,.68E-6,0
EUTELSAT 16A,2011-057A,2026-06-08T03:11:33.446400,1.00270742,.0005863,0.0420,353.1808,86.6668,240.5494,0,U,37836,999,724,0,.119E-5,0
VIASAT-1,2011-059A,2026-06-07T16:18:12.099744,1.00271945,.0002429,0.0164,308.0335,130.1490,307.3550,0,U,37843,999,4722,0,-.9E-7,0
ASIASAT 7,2011-069A,2026-06-08T00:11:41.251776,1.00266655,.0001364,0.0162,349.2610,82.8174,292.7616,0,U,37933,999,4476,0,0,0
BEIDOU-2 IGSO-5,2011-073A,2026-06-07T19:12:21.611232,1.00275188,.0113614,47.6966,271.6638,221.6822,142.6954,0,U,37948,999,5304,0,-.16E-5,0
LUCH-5A,2011-074B,2026-06-07T14:17:18.136320,1.00269830,.000235,8.7288,73.9491,13.7811,189.5949,0,U,37951,999,5295,0,-.36E-6,0
NIGCOMSAT 1R,2011-077A,2026-06-08T03:49:38.792064,1.00271760,.0002574,0.0083,266.4081,87.4457,2.5964,0,U,38014,999,5286,0,.16E-5,0
WGS F4 (USA 233),2012-003A,2026-06-08T01:49:28.240320,1.00267762,.0000422,0.0171,335.9627,308.9918,87.3074,0,U,38070,999,4405,0,0,0
SES-4,2012-007A,2026-06-07T08:11:24.157248,1.00270468,.0002493,0.0248,27.8011,58.4945,270.3024,0,U,38087,999,5212,0,-.154E-5,0
BEIDOU-2 G5,2012-008A,2026-06-08T03:23:47.274432,1.00270155,.0009413,3.5504,69.7521,276.1222,20.2929,0,U,38091,999,5227,0,.73E-6,0
MUOS-1,2012-009A,2026-06-07T16:22:26.692896,1.00270705,.005888,5.4576,47.1644,1.0813,353.4822,0,U,38093,999,5234,0,-.114E-5,0
INTELSAT 22 (IS-22),2012-011A,2026-06-08T03:27:31.915296,1.00273351,.0001612,0.0228,63.7498,3.9804,312.7921,0,U,38098,999,709,0,-.44E-6,0
APSTAR-7,2012-013A,2026-06-08T03:28:46.794720,1.00271258,.0003023,0.0366,87.2382,359.6425,298.3479,0,U,38107,999,5171,0,-.86E-6,0
YAHSAT 1B,2012-016A,2026-06-08T03:20:32.584128,1.00269234,.0002699,0.0870,90.9737,9.7944,253.5099,0,U,38245,999,4551,0,.142E-5,0
AEHF-2 (USA 235),2012-019A,2026-06-08T03:07:38.536896,1.00270420,.0002322,6.6307,57.5560,9.8857,219.4735,0,U,38254,999,689,0,-.121E-5,0
JCSAT-13,2012-023A,2026-06-08T00:17:03.236064,1.00271782,.0002855,0.0119,36.8430,61.3225,286.5140,0,U,38331,999,5144,0,-.341E-5,0
VINASAT-2,2012-023B,2026-06-07T22:36:35.929728,1.00272128,.0002396,0.0178,15.2568,73.8880,278.2012,0,U,38332,999,4656,0,-.313E-5,0
NIMIQ 6,2012-026A,2026-06-08T00:58:21.734976,1.00271724,.0002777,0.0100,332.5433,102.8068,104.5812,0,U,38342,999,5032,0,-.158E-5,0
ZHONGXING-2A,2012-028A,2026-06-08T00:09:41.441760,1.00270950,.0003755,1.4298,84.0016,33.7431,239.3166,0,U,38352,999,5120,0,-.277E-5,0
INTELSAT 19 (IS-19),2012-030A,2026-06-07T14:13:00.863904,1.00271459,.0003093,0.0106,32.4422,51.8353,190.9735,0,U,38356,999,5035,0,-.42E-6,0
ECHOSTAR 17,2012-035A,2026-06-07T14:37:41.807424,1.00269025,.0001807,0.0178,344.3202,92.1715,291.8458,0,U,38551,999,5096,0,0,0
METEOSAT-10 (MSG-3),2012-035B,2026-06-08T01:24:15.657120,1.00275787,.0001633,4.6491,61.0583,335.2386,241.4327,0,U,38552,999,5076,0,.1E-6,0
SES-5,2012-036A,2026-06-07T18:35:03.300000,1.00272808,.0001983,0.0515,307.7529,128.4245,103.7453,0,U,38652,999,4436,0,.49E-6,0
INTELSAT 20 (IS-20),2012-043A,2026-06-08T01:43:51.276864,1.00266075,.0001576,0.0081,87.6182,100.3071,163.0027,0,U,38740,999,5065,0,-.8E-7,0
